COSMOS 2433 (720)       
1 32275U 07052A   23359.18527544 -.00000069  00000+0  00000+0 0  9995
2 32275  65.9930 346.2130 0005344 263.0038  96.9436  2.13104011125772
COSMOS 2432 (719)       
1 32276U 07052B   23359.37390081 -.00000070  00000+0  00000+0 0  9993
2 32276  66.0076 346.3174 0011902 315.9123 135.4703  2.13103266125805
COSMOS 2434 (721)       
1 32393U 07065A   23359.62201179  .00000087  00000+0  00000+0 0  9991
2 32393  64.3263 222.4947 0004657  72.9916 153.5778  2.13103097124494
COSMOS 2436 (723)       
1 32395U 07065C   23359.39294882  .00000087  00000+0  00000+0 0  9990
2 32395  64.3350 222.5653 0017200   7.7422 178.4666  2.13102739124443
COSMOS 2456 (730)       
1 36111U 09070A   23359.59800791 -.00000042  00000+0  00000+0 0  9994
2 36111  64.5372 101.9512 0002822 296.4436  69.1850  2.13098930109158
COSMOS 2457 (733)       
1 36112U 09070B   23359.44003132 -.00000043  00000+0  00000+0 0  9994
2 36112  64.5213 101.8192 0005575 164.4921 211.6151  2.13101119109159
COSMOS 2460 (732)       
1 36402U 10007C   23359.59832429 -.00000072  00000+0  00000+0 0  9995
2 36402  65.8531 344.8954 0002823 287.0941 200.1914  2.13106233107453
COSMOS 2476 (744)       
1 37867U 11064A   23359.78127792 -.00000039  00000+0  00000+0 0  9999
2 37867  64.8148 103.5147 0023030 233.4846 183.0343  2.13101612 94498
COSMOS 2477 (745)       
1 37868U 11064B   23359.46785687 -.00000041  00000+0  00000+0 0  9991
2 37868  64.8219 103.5960 0020192 233.9003 119.9931  2.13101411 94473
COSMOS 2475 (743)       
1 37869U 11064C   23358.58277068 -.00000042  00000+0  00000+0 0  9994
2 37869  64.8287 103.6392 0024494 250.2688 103.2008  2.13101588 94464
COSMOS 2485 (747)       
1 39155U 13019A   23359.18020291 -.00000041  00000+0  00000+0 0  9996
2 39155  64.9739 104.0824 0023432 229.5935 130.1882  2.13101638 82997
COSMOS 2492 (754)       
1 39620U 14012A   23359.60495141 -.00000072  00000+0  00000+0 0  9998
2 39620  65.7361 344.4976 0014992 314.5742  45.3079  2.13103128 75964
COSMOS 2500 (755)       
1 40001U 14032A   23359.31748003 -.00000071  00000+0  00000+0 0  9990
2 40001  65.6741 344.3260 0007542 225.1162 134.8279  2.13105997 74175
COSMOS 2501 (702K)      
1 40315U 14075A   23359.09962902  .00000089  00000+0  00000+0 0  9994
2 40315  63.6289 221.7681 0018091 204.4985 155.5052  2.13101297 70564
COSMOS 2514 (751)       
1 41330U 16008A   23359.55038653 -.00000073  00000+0  00000+0 0  9992
2 41330  65.4702 343.8714 0011535 225.0822 134.8282  2.13102550 61344
COSMOS 2522 (752)       
1 42939U 17055A   23359.39180748  .00000087  00000+0  00000+0 0  9990
2 42939  64.0895 222.7482 0005570 234.1112 125.9279  2.13101978 48693
COSMOS 2527 (756)       
1 43508U 18053A   23359.35041331 -.00000040  00000+0  00000+0 0  9992
2 43508  65.1349 104.1924 0008788 223.9433 135.9732  2.13102306 42990
COSMOS 2529 (757)       
1 43687U 18086A   23359.44985914  .00000086  00000+0  00000+0 0  9999
2 43687  64.3050 223.2120 0007090 266.5402  93.4698  2.13102030 40006
COSMOS 2534 (758)       
1 44299U 19030A   23359.49323838  .00000086  00000+0  00000+0 0  9995
2 44299  64.3779 223.1475 0009833 292.1560 235.3424  2.13101945 35645
COSMOS 2544 (759)       
1 44850U 19088A   23359.76352428 -.00000039  00000+0  00000+0 0  9997
2 44850  65.1212 104.0192 0013096 251.1783 108.6676  2.13102090 31447
COSMOS 2545 (760)       
1 45358U 20018A   23359.49116397 -.00000074  00000+0  00000+0 0  9998
2 45358  64.8104 344.0269 0011591 254.7044 105.1718  2.13102553 29388
COSMOS 2547 (705K)      
1 46805U 20075A   23359.21050686  .00000088  00000+0  00000+0 0  9991
2 46805  64.6058 222.7464 0005570 237.5623 122.4746  2.13102891 24623
COSMOS 2557 (706K)      
1 52984U 22075A   23359.37365370 -.00000073  00000+0  00000+0 0  9999
2 52984  64.7310 346.1786 0014132 281.1087  78.7398  2.13101923 11437
COSMOS 2559 (707K)      
1 54031U 22130A   23359.31600716 -.00000073  00000+0  00000+0 0  9996
2 54031  64.7024 346.3044 0007554 236.9239 123.0116  2.13101230  9407
COSMOS 2564 (761)       
1 54377U 22161A   23359.50859335  .00000087  00000+0  00000+0 0  9991
2 54377  64.7467 222.8096 0007382 209.7893 150.2596  2.13102155  8353
COSMOS 2569 (703K)      
1 57517U 23114A   23359.52715982 -.00000041  00000+0  00000+0 0  9991
2 57517  64.8453 103.2401 0010088 291.4705  68.4101  2.13104209  2984
